[{"OBJECT_NAME":"STARLINK-33977","OBJECT_ID":"2025-126A","EPOCH":"2026-03-09T22:58:29.313408","MEAN_MOTION":14.98346979,"ECCENTRICITY":0.00026538,"INCLINATION":70.0056,"RA_OF_ASC_NODE":33.7233,"ARG_OF_PERICENTER":251.3926,"MEAN_ANOMALY":108.6945,"EPHEMERIS_TYPE":0,"CLASSIFICATION_TYPE":"U","NORAD_CAT_ID":64344,"ELEMENT_SET_NO":999,"REV_AT_EPOCH":4193,"BSTAR":0.00048924888,"MEAN_MOTION_DOT":5.752e-5,"MEAN_MOTION_DDOT":0},{"OBJECT_NAME":"RAPIDEYE 5","OBJECT_ID":"2008-040B","EPOCH":"2026-03-09T15:17:22.403904","MEAN_MOTION":15.02179038,"ECCENTRICITY":0.0014834,"INCLINATION":97.3944,"RA_OF_ASC_NODE":91.3825,"ARG_OF_PERICENTER":86.9831,"MEAN_ANOMALY":273.3091,"EPHEMERIS_TYPE":0,"CLASSIFICATION_TYPE":"U","NORAD_CAT_ID":33313,"ELEMENT_SET_NO":999,"REV_AT_EPOCH":95055,"BSTAR":0.00014028,"MEAN_MOTION_DOT":1.794e-5,"MEAN_MOTION_DDOT":0}]
